{
  "type": "FeatureCollection",
  "features": [
    {
      "type": "Feature",
      "properties": {
        "norad_id": 67039,
        "name": "STARLINK-35705",
        "group": "last-30-days",
        "lat": 37.60052255229506,
        "lon": -131.04306658787542,
        "alt_km": 353.05239621221517,
        "timestamp": "2025-12-25T09:48:51.008088+00:00",
        "meta_object_name": "STARLINK-35705",
        "meta_object_id": "2025-294K",
        "meta_epoch": "2025-12-25T04:00:01.998720",
        "meta_mean_motion": 15.71371241,
        "meta_eccentricity": 0.0001312,
        "meta_inclination": 42.9995,
        "meta_ra_of_asc_node": 106.1552,
        "meta_arg_of_pericenter": 274.8169,
        "meta_mean_anomaly": 270.126,
        "meta_ephemeris_type": 0,
        "meta_classification_type": "U",
        "meta_norad_cat_id": 67039,
        "meta_element_set_no": 999,
        "meta_rev_at_epoch": 210,
        "meta_bstar": -0.016737,
        "meta_mean_motion_dot": -0.01944552,
        "meta_mean_motion_ddot": 0,
        "tle_line1": "1 67039U 25294K   25359.16668980 -.01944552  00000+0 -16737-1 0  9991",
        "tle_line2": "2 67039  42.9995 106.1552 0001312 274.8169 270.1260 15.71371241  2102"
      },
      "geometry": {
        "type": "Point",
        "coordinates": [
          -131.04306658787542,
          37.60052255229506
        ]
      }
    },
    {
      "type": "Feature",
      "properties": {
        "norad_id": 67040,
        "name": "STARLINK-35786",
        "group": "last-30-days",
        "lat": 38.359766500515306,
        "lon": -133.44174149236477,
        "alt_km": 352.8737879593509,
        "timestamp": "2025-12-25T09:48:51.008100+00:00",
        "meta_object_name": "STARLINK-35786",
        "meta_object_id": "2025-294L",
        "meta_epoch": "2025-12-25T04:00:01.998720",
        "meta_mean_motion": 15.71377005,
        "meta_eccentricity": 0.0001263,
        "meta_inclination": 42.9996,
        "meta_ra_of_asc_node": 106.1605,
        "meta_arg_of_pericenter": 271.7289,
        "meta_mean_anomaly": 271.1702,
        "meta_ephemeris_type": 0,
        "meta_classification_type": "U",
        "meta_norad_cat_id": 67040,
        "meta_element_set_no": 999,
        "meta_rev_at_epoch": 210,
        "meta_bstar": -0.016719,
        "meta_mean_motion_dot": -0.01943123,
        "meta_mean_motion_ddot": 0,
        "tle_line1": "1 67040U 25294L   25359.16668980 -.01943123  00000+0 -16719-1 0  9996",
        "tle_line2": "2 67040  42.9996 106.1605 0001263 271.7289 271.1702 15.71377005  2104"
      },
      "geometry": {
        "type": "Point",
        "coordinates": [
          -133.44174149236477,
          38.359766500515306
        ]
      }
    },
    {
      "type": "Feature",
      "properties": {
        "norad_id": 67041,
        "name": "STARLINK-35765",
        "group": "last-30-days",
        "lat": 36.811724287785104,
        "lon": -128.7452988573704,
        "alt_km": 353.14856611257073,
        "timestamp": "2025-12-25T09:48:51.008110+00:00",
        "meta_object_name": "STARLINK-35765",
        "meta_object_id": "2025-294M",
        "meta_epoch": "2025-12-25T04:00:01.998720",
        "meta_mean_motion": 15.71366321,
        "meta_eccentricity": 0.0001296,
        "meta_inclination": 42.9992,
        "meta_ra_of_asc_node": 106.1507,
        "meta_arg_of_pericenter": 271.7862,
        "meta_mean_anomaly": 275.1562,
        "meta_ephemeris_type": 0,
        "meta_classification_type": "U",
        "meta_norad_cat_id": 67041,
        "meta_element_set_no": 999,
        "meta_rev_at_epoch": 210,
        "meta_bstar": -0.01675,
        "meta_mean_motion_dot": -0.01945501,
        "meta_mean_motion_ddot": 0,
        "tle_line1": "1 67041U 25294M   25359.16668980 -.01945501  00000+0 -16750-1 0  9994",
        "tle_line2": "2 67041  42.9992 106.1507 0001296 271.7862 275.1562 15.71366321  2102"
      },
      "geometry": {
        "type": "Point",
        "coordinates": [
          -128.7452988573704,
          36.811724287785104
        ]
      }
    },
    {
      "type": "Feature",
      "properties": {
        "norad_id": 67042,
        "name": "STARLINK-35773",
        "group": "last-30-days",
        "lat": 35.9328996827853,
        "lon": -126.37409241845612,
        "alt_km": 353.31931053516564,
        "timestamp": "2025-12-25T09:48:51.008120+00:00",
        "meta_object_name": "STARLINK-35773",
        "meta_object_id": "2025-294N",
        "meta_epoch": "2025-12-25T04:00:01.998720",
        "meta_mean_motion": 15.71353219,
        "meta_eccentricity": 0.0001308,
        "meta_inclination": 42.9995,
        "meta_ra_of_asc_node": 106.1448,
        "meta_arg_of_pericenter": 272.7183,
        "meta_mean_anomaly": 276.3384,
        "meta_ephemeris_type": 0,
        "meta_classification_type": "U",
        "meta_norad_cat_id": 67042,
        "meta_element_set_no": 999,
        "meta_rev_at_epoch": 230,
        "meta_bstar": -0.016726,
        "meta_mean_motion_dot": -0.0194211,
        "meta_mean_motion_ddot": 0,
        "tle_line1": "1 67042U 25294N   25359.16668980 -.01942110  00000+0 -16726-1 0  9991",
        "tle_line2": "2 67042  42.9995 106.1448 0001308 272.7183 276.3384 15.71353219  2300"
      },
      "geometry": {
        "type": "Point",
        "coordinates": [
          -126.37409241845612,
          35.9328996827853
        ]
      }
    },
    {
      "type": "Feature",
      "properties": {
        "norad_id": 67043,
        "name": "STARLINK-35901",
        "group": "last-30-days",
        "lat": 35.0146103929358,
        "lon": -124.07052289393827,
        "alt_km": 353.43343553011346,
        "timestamp": "2025-12-25T09:48:51.008132+00:00",
        "meta_object_name": "STARLINK-35901",
        "meta_object_id": "2025-294P",
        "meta_epoch": "2025-12-25T04:00:01.998720",
        "meta_mean_motion": 15.71345332,
        "meta_eccentricity": 0.0001283,
        "meta_inclination": 42.9998,
        "meta_ra_of_asc_node": 106.1403,
        "meta_arg_of_pericenter": 269.4796,
        "meta_mean_anomaly": 281.6757,
        "meta_ephemeris_type": 0,
        "meta_classification_type": "U",
        "meta_norad_cat_id": 67043,
        "meta_element_set_no": 999,
        "meta_rev_at_epoch": 230,
        "meta_bstar": -0.016769,
        "meta_mean_motion_dot": -0.01945915,
        "meta_mean_motion_ddot": 0,
        "tle_line1": "1 67043U 25294P   25359.16668980 -.01945915  00000+0 -16769-1 0  9995",
        "tle_line2": "2 67043  42.9998 106.1403 0001283 269.4796 281.6757 15.71345332  2300"
      },
      "geometry": {
        "type": "Point",
        "coordinates": [
          -124.07052289393827,
          35.0146103929358
        ]
      }
    },
    {
      "type": "Feature",
      "properties": {
        "norad_id": 67044,
        "name": "STARLINK-35884",
        "group": "last-30-days",
        "lat": 34.069804899927746,
        "lon": -121.85823579655806,
        "alt_km": 353.63224544428704,
        "timestamp": "2025-12-25T09:48:51.008144+00:00",
        "meta_object_name": "STARLINK-35884",
        "meta_object_id": "2025-294Q",
        "meta_epoch": "2025-12-25T04:00:01.998720",
        "meta_mean_motion": 15.71336451,
        "meta_eccentricity": 0.0001285,
        "meta_inclination": 42.9998,
        "meta_ra_of_asc_node": 106.1344,
        "meta_arg_of_pericenter": 273.8344,
        "meta_mean_anomaly": 279.3817,
        "meta_ephemeris_type": 0,
        "meta_classification_type": "U",
        "meta_norad_cat_id": 67044,
        "meta_element_set_no": 999,
        "meta_rev_at_epoch": 230,
        "meta_bstar": -0.016753,
        "meta_mean_motion_dot": -0.01943701,
        "meta_mean_motion_ddot": 0,
        "tle_line1": "1 67044U 25294Q   25359.16668980 -.01943701  00000+0 -16753-1 0  9990",
        "tle_line2": "2 67044  42.9998 106.1344 0001285 273.8344 279.3817 15.71336451  2308"
      },
      "geometry": {
        "type": "Point",
        "coordinates": [
          -121.85823579655806,
          34.069804899927746
        ]
      }
    },
    {
      "type": "Feature",
      "properties": {
        "norad_id": 67045,
        "name": "STARLINK-35891",
        "group": "last-30-days",
        "lat": 32.97544804380571,
        "lon": -119.46021597265528,
        "alt_km": 353.793732530311,
        "timestamp": "2025-12-25T09:48:51.008154+00:00",
        "meta_object_name": "STARLINK-35891",
        "meta_object_id": "2025-294R",
        "meta_epoch": "2025-12-25T04:00:01.998720",
        "meta_mean_motion": 15.71312926,
        "meta_eccentricity": 0.0001276,
        "meta_inclination": 42.9997,
        "meta_ra_of_asc_node": 106.1286,
        "meta_arg_of_pericenter": 268.9212,
        "meta_mean_anomaly": 286.5973,
        "meta_ephemeris_type": 0,
        "meta_classification_type": "U",
        "meta_norad_cat_id": 67045,
        "meta_element_set_no": 999,
        "meta_rev_at_epoch": 222,
        "meta_bstar": -0.016748,
        "meta_mean_motion_dot": -0.01941457,
        "meta_mean_motion_ddot": 0,
        "tle_line1": "1 67045U 25294R   25359.16668980 -.01941457  00000+0 -16748-1 0  9991",
        "tle_line2": "2 67045  42.9997 106.1286 0001276 268.9212 286.5973 15.71312926  2227"
      },
      "geometry": {
        "type": "Point",
        "coordinates": [
          -119.46021597265528,
          32.97544804380571
        ]
      }
    }
  ]
}